[{"OBJECT_NAME":"STARLINK-5826","OBJECT_ID":"2023-028AT","EPOCH":"2026-03-09T18:27:48.359808","MEAN_MOTION":14.98361608,"ECCENTRICITY":0.00040009,"INCLINATION":69.9986,"RA_OF_ASC_NODE":204.4326,"ARG_OF_PERICENTER":275.9334,"MEAN_ANOMALY":84.1369,"EPHEMERIS_TYPE":0,"CLASSIFICATION_TYPE":"U","NORAD_CAT_ID":55782,"ELEMENT_SET_NO":999,"REV_AT_EPOCH":16703,"BSTAR":-7.5635032e-5,"MEAN_MOTION_DOT":-9.96e-6,"MEAN_MOTION_DDOT":0},{"OBJECT_NAME":"EZIE-B","OBJECT_ID":"2025-052AS","EPOCH":"2026-03-09T23:09:37.705536","MEAN_MOTION":14.96286279,"ECCENTRICITY":0.00040038,"INCLINATION":97.7009,"RA_OF_ASC_NODE":322.7783,"ARG_OF_PERICENTER":146.8572,"MEAN_ANOMALY":213.2901,"EPHEMERIS_TYPE":0,"CLASSIFICATION_TYPE":"U","NORAD_CAT_ID":63250,"ELEMENT_SET_NO":999,"REV_AT_EPOCH":5382,"BSTAR":0.00063815223,"MEAN_MOTION_DOT":7.158e-5,"MEAN_MOTION_DDOT":0}]
